{
  "REF_FRAME": "GCRF",
  "TIME_SYSTEM": "UTC",
  "MEAN_ELEMENT_THEORY": "SGP4",
  "RECORDS": [
    {
      "ENTITY_ID": "ISS",
      "EPOCH": "2023-01-01T00:00:00Z",
      "SEMI_MAJOR_AXIS": 6790.0,
      "ECCENTRICITY": 0.0006105,
      "INCLINATION": 51.6428,
      "RA_OF_ASC_NODE": 152.4702,
      "ARG_OF_PERICENTER": 83.3179,
      "MEAN_ANOMALY": 276.8203
    },
    {
      "ENTITY_ID": "LANDSAT-8",
      "EPOCH": "2023-01-01T00:00:00Z",
      "SEMI_MAJOR_AXIS": 7080.0,
      "ECCENTRICITY": 0.0001287,
      "INCLINATION": 98.2220,
      "RA_OF_ASC_NODE": 245.7642,
      "ARG_OF_PERICENTER": 88.7129,
      "MEAN_ANOMALY": 271.3928
    },
    {
      "ENTITY_ID": "GPS-BIIR-10",
      "EPOCH": "2023-01-01T00:00:00Z",
      "SEMI_MAJOR_AXIS": 26559.0,
      "ECCENTRICITY": 0.0049971,
      "INCLINATION": 55.0380,
      "RA_OF_ASC_NODE": 40.5955,
      "ARG_OF_PERICENTER": 307.4908,
      "MEAN_ANOMALY": 52.5539
    },
    {
      "ENTITY_ID": "GOES-16",
      "EPOCH": "2023-01-01T00:00:00Z",
      "SEMI_MAJOR_AXIS": 42164.0,
      "ECCENTRICITY": 0.0000001,
      "INCLINATION": 0.0300,
      "RA_OF_ASC_NODE": 88.7129,
      "ARG_OF_PERICENTER": 271.3928,
      "MEAN_ANOMALY": 88.7129
    },
    {
      "ENTITY_ID": "SIRIUS-2",
      "EPOCH": "2023-01-01T00:00:00Z",
      "MEAN_MOTION": 1.0027,
      "ECCENTRICITY": 0.2750,
      "INCLINATION": 63.5000,
      "RA_OF_ASC_NODE": 270.0000,
      "ARG_OF_PERICENTER": 270.0000,
      "MEAN_ANOMALY": 0.0000
    },
    {
      "ENTITY_ID": "INTERSTELLAR-VISITOR",
      "EPOCH": "2023-01-01T00:00:00Z",
      "SEMI_MAJOR_AXIS": 10000.0,
      "ECCENTRICITY": 1.2000,
      "INCLINATION": 120.0000,
      "RA_OF_ASC_NODE": 180.0000,
      "ARG_OF_PERICENTER": 45.0000,
      "MEAN_ANOMALY": 0.0000
    }
  ]
} 